H1 CPF  1  DLR 2022 12 04 13  8382 technosat            
H2  1704205 6203    42829 2022 12 04 00 00 00 2022 12 11 00 00 00    60 1 1  0 0 0
H9
10 0 59923  28800.000000  0       4246809.660      -1524948.393       5303068.463
10 0 59923  28860.000000  0       3881336.211      -1508883.797       5579025.469
10 0 59923  28920.000000  0       3499668.316      -1483183.510       5831270.802
10 0 59923  28980.000000  0       3103499.640      -1447821.106       6058730.281
10 0 59923  29040.000000  0       2694585.273      -1402826.008       6260434.789
10 0 59923  29100.000000  0       2274733.878      -1348283.871       6435524.369
10 0 59923  29160.000000  0       1845799.540      -1284336.692       6583251.844
10 0 59923  29220.000000  0       1409673.467      -1211182.562       6702985.950
10 0 59923  29280.000000  0        968275.524      -1129075.113       6794213.958
10 0 59923  29340.000000  0        523545.741      -1038322.670       6856543.781
10 0 59923  29400.000000  0         77435.735       -939287.115       6889705.633
10 0 59923  29460.000000  0       -368099.878       -832382.459       6893553.146
10 0 59923  29520.000000  0       -811112.036       -718073.151       6868064.080
10 0 59923  29580.000000  0      -1249665.819       -596872.067       6813340.522
10 0 59923  29640.000000  0      -1681848.943       -469338.216       6729608.540
10 0 59923  29700.000000  0      -2105780.119       -336074.192       6617217.386
10 0 59923  29760.000000  0      -2519617.341       -197723.368       6476638.243
10 0 59923  29820.000000  0      -2921566.020        -54966.810       6308462.422
10 0 59923  29880.000000  0      -3309886.933         91480.005       6113399.081
10 0 59923  29940.000000  0      -3682903.980        240870.712       5892272.453
10 0 59923  30000.000000  0      -4039011.695        392431.804       5646018.507
10 0 59923  30060.000000  0      -4376682.394        545366.550       5375681.117
10 0 59923  30120.000000  0      -4694473.046        698859.092       5082407.826
10 0 59923  30180.000000  0      -4991031.798        852078.723       4767445.081
10 0 59923  30240.000000  0      -5265104.077       1004184.301       4432132.951
10 0 59923  30300.000000  0      -5515538.190       1154328.746       4077899.429
10 0 59923  30360.000000  0      -5741290.478       1301663.634       3706254.369
10 0 59923  30420.000000  0      -5941430.002       1445343.870       3318783.005
10 0 59923  30480.000000  0      -6115142.698       1584532.385       2917139.086
10 0 59923  30540.000000  0      -6261734.968       1718404.815       2503037.661
10 0 59923  30600.000000  0      -6380636.705       1846154.163       2078247.580
10 0 59923  30660.000000  0      -6471403.752       1966995.440       1644583.703
10 0 59923  30720.000000  0      -6533719.708       2080170.232       1203898.807
10 0 59923  30780.000000  0      -6567397.047       2184951.129        758075.315
10 0 59923  30840.000000  0      -6572377.577       2280645.992        309016.916
10 0 59923  30900.000000  0      -6548732.309       2366602.049       -141359.905
10 0 59923  30960.000000  0      -6496660.640       2442209.805       -591134.420
10 0 59923  31020.000000  0      -6416488.879       2506906.719      -1038390.159
10 0 59923  31080.000000  0      -6308668.219       2560180.668      -1481223.360
10 0 59923  31140.000000  0      -6173772.083       2601573.153      -1917751.384
10 0 59923  31200.000000  0      -6012492.830       2630682.228      -2346121.026
10 0 59923  31260.000000  0      -5825637.842       2647165.095      -2764516.580
10 0 59923  31320.000000  0      -5614125.121       2650740.374      -3171167.643
10 0 59923  31380.000000  0      -5378978.391       2641190.040      -3564356.666
10 0 59923  31440.000000  0      -5121321.751       2618361.040      -3942426.175
10 0 59923  31500.000000  0      -4842373.911       2582166.589      -4303785.685
10 0 59923  31560.000000  0      -4543442.022       2532587.102      -4646918.221
10 0 59923  31620.000000  0      -4225915.169       2469670.789      -4970386.441
10 0 59923  31680.000000  0      -3891257.600       2393533.931      -5272838.330
10 0 59923  31740.000000  0      -3541001.727       2304360.819      -5553012.489
10 0 59923  31800.000000  0      -3176740.937       2202403.373      -5809743.029
10 0 59923  31860.000000  0      -2800122.212       2087980.425      -6041964.084
10 0 59923  31920.000000  0      -2412838.515       1961476.673      -6248713.876
10 0 59923  31980.000000  0      -2016621.043       1823341.297      -6429138.242
10 0 59923  32040.000000  0      -1613231.507       1674086.285      -6582493.628
10 0 59923  32100.000000  0      -1204454.451       1514284.501      -6708149.771
10 0 59923  32160.000000  0       -792089.461       1344567.423      -6805591.951
10 0 59923  32220.000000  0       -377943.389       1165622.624      -6874422.689
10 0 59923  32280.000000  0         36177.250        978191.043      -6914363.057
10 0 59923  32340.000000  0        448473.862        783063.983      -6925253.708
10 0 59923  32400.000000  0        857163.427        581079.828      -6907055.478
10 0 59923  32460.000000  0       1260486.062        373120.491      -6859849.385
10 0 59923  32520.000000  0       1656712.337        160107.662      -6783836.163
10 0 59923  32580.000000  0       2044150.408        -57001.154      -6679335.411
10 0 59923  32640.000000  0       2421152.990       -277216.768      -6546784.421
10 0 59923  32700.000000  0       2786124.274       -499522.675      -6386736.539
10 0 59923  32760.000000  0       3137526.533       -722879.603      -6199858.962
10 0 59923  32820.000000  0       3473886.402       -946230.163      -5986930.182
10 0 59923  32880.000000  0       3793800.967      -1168503.644      -5748837.134
10 0 59923  32940.000000  0       4095943.669      -1388621.019      -5486571.896
10 0 59923  33000.000000  0       4379069.881      -1605500.072      -5201227.886
10 0 59923  33060.000000  0       4642022.123      -1818060.598      -4893995.633
10 0 59923  33120.000000  0       4883734.918      -2025229.647      -4566158.159
10 0 59923  33180.000000  0       5103239.284      -2225946.833      -4219085.977
10 0 59923  33240.000000  0       5299666.841      -2419169.642      -3854231.686
10 0 59923  33300.000000  0       5472253.516      -2603878.749      -3473124.181
10 0 59923  33360.000000  0       5620342.787      -2779083.291      -3077362.476
10 0 59923  33420.000000  0       5743388.461      -2943826.085      -2668609.174
10 0 59923  33480.000000  0       5840956.924      -3097188.738      -2248583.605
10 0 59923  33540.000000  0       5912728.888      -3238296.614      -1819054.717
10 0 59923  33600.000000  0       5958500.667      -3366323.676      -1381833.715
10 0 59923  33660.000000  0       5978184.924      -3480497.163       -938766.406
10 0 59923  33720.000000  0       5971810.803      -3580102.030       -491725.334
10 0 59923  33780.000000  0       5939523.544      -3664485.116        -42601.809
10 0 59923  33840.000000  0       5881583.564      -3733059.087        406702.202
10 0 59923  33900.000000  0       5798365.000      -3785306.125        854282.286
10 0 59923  33960.000000  0       5690353.692      -3820781.257       1298239.912
10 0 59923  34020.000000  0       5558144.539      -3839115.273       1736690.752
10 0 59923  34080.000000  0       5402438.307      -3840017.245       2167772.846
10 0 59923  34140.000000  0       5224038.025      -3823276.752       2589654.625
10 0 59923  34200.000000  0       5023844.895      -3788765.719       3000542.909
10 0 59923  34260.000000  0       4802853.721      -3736439.768       3398690.689
10 0 59923  34320.000000  0       4562147.952      -3666339.182       3782404.652
10 0 59923  34380.000000  0       4302894.366      -3578589.526       4150052.504
10 0 59923  34440.000000  0       4026337.304      -3473401.842       4500070.094
10 0 59923  34500.000000  0       3733792.485      -3351072.349       4830968.150
10 0 59923  34560.000000  0       3426640.588      -3211981.710       5141338.581
10 0 59923  34620.000000  0       3106320.662      -3056593.900       5429860.452
10 0 59923  34680.000000  0       2774323.267      -2885454.673       5695305.620
10 0 59923  34740.000000  0       2432183.383      -2699189.627       5936543.902
10 0 59923  34800.000000  0       2081473.195      -2498501.900       6152547.810
10 0 59923  34860.000000  0       1723794.769      -2284169.481       6342396.826
10 0 59923  34920.000000  0       1360772.669      -2057042.172       6505281.262
10 0 59923  34980.000000  0        994046.475      -1818038.160       6640505.648
10 0 59923  35040.000000  0        625263.326      -1568140.263       6747491.594
10 0 59923  35100.000000  0        256070.502      -1308391.874       6825780.223
10 0 59923  35160.000000  0       -111891.984      -1039892.552       6875034.114
10 0 59923  35220.000000  0       -476998.687       -763793.349       6895038.687
10 0 59923  35280.000000  0       -837645.905       -481291.906       6885703.198
10 0 59923  35340.000000  0      -1192258.796       -193627.234       6847061.221
10 0 59923  35400.000000  0      -1539298.300         97925.739       6779270.591
10 0 59923  35460.000000  0      -1877267.857        392061.823       6682612.877
10 0 59923  35520.000000  0      -2204719.957        687451.426       6557492.359
10 0 59923  35580.000000  0      -2520262.455        982746.581       6404434.476
10 0 59923  35640.000000  0      -2822564.593       1276587.118       6224083.792
10 0 59923  35700.000000  0      -3110362.766       1567606.976       6017201.496
10 0 59923  35760.000000  0      -3382466.006       1854440.600       5784662.397
10 0 59923  35820.000000  0      -3637761.147       2135729.455       5527451.424
10 0 59923  35880.000000  0      -3875217.614       2410128.591       5246659.593
10 0 59923  35940.000000  0      -4093891.806       2676313.214       4943479.488
99
